[{"OBJECT_NAME":"STARLINK-5979","OBJECT_ID":"2023-058AE","EPOCH":"2026-03-09T21:37:34.278816","MEAN_MOTION":15.01261582,"ECCENTRICITY":0.00028491,"INCLINATION":97.6037,"RA_OF_ASC_NODE":70.4284,"ARG_OF_PERICENTER":135.1662,"MEAN_ANOMALY":224.9793,"EPHEMERIS_TYPE":0,"CLASSIFICATION_TYPE":"U","NORAD_CAT_ID":56345,"ELEMENT_SET_NO":999,"REV_AT_EPOCH":15816,"BSTAR":1.3419342e-5,"MEAN_MOTION_DOT":1.14e-6,"MEAN_MOTION_DDOT":0},{"OBJECT_NAME":"HAWK-9C","OBJECT_ID":"2024-066G","EPOCH":"2026-03-08T13:33:16.734528","MEAN_MOTION":14.98771048,"ECCENTRICITY":0.00034369,"INCLINATION":45.5963,"RA_OF_ASC_NODE":76.3952,"ARG_OF_PERICENTER":229.7565,"MEAN_ANOMALY":130.3016,"EPHEMERIS_TYPE":0,"CLASSIFICATION_TYPE":"U","NORAD_CAT_ID":59448,"ELEMENT_SET_NO":999,"REV_AT_EPOCH":10473,"BSTAR":0.00026713286,"MEAN_MOTION_DOT":3.036e-5,"MEAN_MOTION_DDOT":0}]
